{"type": "FeatureCollection", "features": [ {"type": "Feature", "properties": {"norad_id": 37550, "name": "IRIDIUM 33 DEB", "group": "iridium-33-debris", "lat": 60.746168001625456, "lon": -158.94483411541893, "alt_km": 661.2025533874685, "timestamp": "2025-12-04T10:51:50.491084+00:00", "meta": {"OBJECT_NAME": "IRIDIUM 33 DEB", "OBJECT_ID": "1997-051XK", "EPOCH": "2025-12-01T10:17:32.492256", "MEAN_MOTION": 14.66958093, "ECCENTRICITY": 0.00051706, "INCLINATION": 86.3787, "RA_OF_ASC_NODE": 28.8861, "ARG_OF_PERICENTER": 137.4218, "MEAN_ANOMALY": 222.7397, "EPHEMERIS_TYPE": 0, "CLASSIFICATION_TYPE": "U", "NORAD_CAT_ID": 37550, "ELEMENT_SET_NO": 999, "REV_AT_EPOCH": 86167, "BSTAR": 0.0016356222, "MEAN_MOTION_DOT": 9.181e-05, "MEAN_MOTION_DDOT": 0}, "tle": {"line1": "1 37550U 97051XK  25335.42884829  .00009181  00000+0  16356-2 0  9996", "line2": "2 37550  86.3787  28.8861 0005170 137.4218 222.7397 14.66958093861674"}}, "geometry": {"type": "Point", "coordinates": [-158.94483411541893, 60.746168001625456]}}, {"type": "Feature", "properties": {"norad_id": 37562, "name": "IRIDIUM 33 DEB", "group": "iridium-33-debris", "lat": -72.91513506574395, "lon": 35.313049903251645, "alt_km": 729.169830296154, "timestamp": "2025-12-04T10:51:50.491094+00:00", "meta": {"OBJECT_NAME": "IRIDIUM 33 DEB", "OBJECT_ID": "1997-051XX", "EPOCH": "2025-12-02T11:38:58.279200", "MEAN_MOTION": 14.56310782, "ECCENTRICITY": 0.00264774, "INCLINATION": 86.3757, "RA_OF_ASC_NODE": 48.0711, "ARG_OF_PERICENTER": 140.1139, "MEAN_ANOMALY": 279.2058, "EPHEMERIS_TYPE": 0, "CLASSIFICATION_TYPE": "U", "NORAD_CAT_ID": 37562, "ELEMENT_SET_NO": 999, "REV_AT_EPOCH": 86179, "BSTAR": 0.0014715729, "MEAN_MOTION_DOT": 6.569e-05, "MEAN_MOTION_DDOT": 0}, "tle": {"line1": "1 37562U 97051XX  25336.48539675  .00006569  00000+0  14716-2 0  9997", "line2": "2 37562  86.3757  48.0711 0026477 140.1139 279.2058 14.56310782861798"}}, "geometry": {"type": "Point", "coordinates": [35.313049903251645, -72.91513506574395]}}, {"type": "Feature", "properties": {"norad_id": 37565, "name": "IRIDIUM 33 DEB", "group": "iridium-33-debris", "lat": -34.227684159281175, "lon": -164.3226476266012, "alt_km": 730.1938185185263, "timestamp": "2025-12-04T10:51:50.491104+00:00", "meta": {"OBJECT_NAME": "IRIDIUM 33 DEB", "OBJECT_ID": "1997-051YA", "EPOCH": "2025-12-03T20:38:42.302976", "MEAN_MOTION": 14.51459123, "ECCENTRICITY": 0.0015186, "INCLINATION": 86.3502, "RA_OF_ASC_NODE": 13.4465, "ARG_OF_PERICENTER": 109.8434, "MEAN_ANOMALY": 250.441, "EPHEMERIS_TYPE": 0, "CLASSIFICATION_TYPE": "U", "NORAD_CAT_ID": 37565, "ELEMENT_SET_NO": 999, "REV_AT_EPOCH": 65708, "BSTAR": 0.0010607, "MEAN_MOTION_DOT": 4.261e-05, "MEAN_MOTION_DDOT": 0}, "tle": {"line1": "1 37565U 97051YA  25337.86021184  .00004261  00000+0  10607-2 0  9996", "line2": "2 37565  86.3502  13.4465 0015186 109.8434 250.4410 14.51459123657082"}}, "geometry": {"type": "Point", "coordinates": [-164.3226476266012, -34.227684159281175]}}, {"type": "Feature", "properties": {"norad_id": 38017, "name": "IRIDIUM 33 DEB", "group": "iridium-33-debris", "lat": 22.659702069636932, "lon": 171.35319335893053, "alt_km": 750.5229511328034, "timestamp": "2025-12-04T10:51:50.491115+00:00", "meta": {"OBJECT_NAME": "IRIDIUM 33 DEB", "OBJECT_ID": "1997-051YD", "EPOCH": "2025-12-01T06:29:11.103360", "MEAN_MOTION": 14.48304289, "ECCENTRICITY": 0.009214, "INCLINATION": 86.3439, "RA_OF_ASC_NODE": 171.2047, "ARG_OF_PERICENTER": 141.8586, "MEAN_ANOMALY": 218.9187, "EPHEMERIS_TYPE": 0, "CLASSIFICATION_TYPE": "U", "NORAD_CAT_ID": 38017, "ELEMENT_SET_NO": 999, "REV_AT_EPOCH": 61236, "BSTAR": 0.0066574, "MEAN_MOTION_DOT": 0.00026341, "MEAN_MOTION_DDOT": 0}, "tle": {"line1": "1 38017U 97051YD  25335.27026740  .00026341  00000+0  66574-2 0  9992", "line2": "2 38017  86.3439 171.2047 0092140 141.8586 218.9187 14.48304289612362"}}, "geometry": {"type": "Point", "coordinates": [171.35319335893053, 22.659702069636932]}}, {"type": "Feature", "properties": {"norad_id": 38022, "name": "IRIDIUM 33 DEB", "group": "iridium-33-debris", "lat": 29.799536403208776, "lon": 22.213795436633255, "alt_km": 730.0935295086701, "timestamp": "2025-12-04T10:51:50.491125+00:00", "meta": {"OBJECT_NAME": "IRIDIUM 33 DEB", "OBJECT_ID": "1997-051YJ", "EPOCH": "2025-12-03T09:43:50.752992", "MEAN_MOTION": 14.41155819, "ECCENTRICITY": 0.00470517, "INCLINATION": 86.2701, "RA_OF_ASC_NODE": 20.531, "ARG_OF_PERICENTER": 80.0356, "MEAN_ANOMALY": 280.615, "EPHEMERIS_TYPE": 0, "CLASSIFICATION_TYPE": "U", "NORAD_CAT_ID": 38022, "ELEMENT_SET_NO": 999, "REV_AT_EPOCH": 69059, "BSTAR": 0.0013840286, "MEAN_MOTION_DOT": 4.54e-05, "MEAN_MOTION_DDOT": 0}, "tle": {"line1": "1 38022U 97051YJ  25337.40544853  .00004540  00000+0  13840-2 0  9990", "line2": "2 38022  86.2701  20.5310 0047051  80.0356 280.6150 14.41155819690591"}}, "geometry": {"type": "Point", "coordinates": [22.213795436633255, 29.799536403208776]}}, {"type": "Feature", "properties": {"norad_id": 38028, "name": "IRIDIUM 33 DEB", "group": "iridium-33-debris", "lat": 25.890063355231327, "lon": 5.659094464944877, "alt_km": 748.1491991636449, "timestamp": "2025-12-04T10:51:50.491135+00:00", "meta": {"OBJECT_NAME": "IRIDIUM 33 DEB", "OBJECT_ID": "1997-051YQ", "EPOCH": "2025-12-02T08:55:29.085888", "MEAN_MOTION": 14.46151271, "ECCENTRICITY": 0.00294346, "INCLINATION": 86.325, "RA_OF_ASC_NODE": 4.7758, "ARG_OF_PERICENTER": 153.8613, "MEAN_ANOMALY": 206.4083, "EPHEMERIS_TYPE": 0, "CLASSIFICATION_TYPE": "U", "NORAD_CAT_ID": 38028, "ELEMENT_SET_NO": 999, "REV_AT_EPOCH": 65345, "BSTAR": 0.00044678043, "MEAN_MOTION_DOT": 1.624e-05, "MEAN_MOTION_DDOT": 0}, "tle": {"line1": "1 38028U 97051YQ  25336.37186442  .00001624  00000+0  44678-3 0  9991", "line2": "2 38028  86.3250   4.7758 0029434 153.8613 206.4083 14.46151271653455"}}, "geometry": {"type": "Point", "coordinates": [5.659094464944877, 25.890063355231327]}}, {"type": "Feature", "properties": {"norad_id": 38228, "name": "IRIDIUM 33 DEB", "group": "iridium-33-debris", "lat": 16.726225308353527, "lon": -129.1231200510154, "alt_km": 774.1966726934997, "timestamp": "2025-12-04T10:51:50.491145+00:00", "meta": {"OBJECT_NAME": "IRIDIUM 33 DEB", "OBJECT_ID": "1997-051ZC", "EPOCH": "2025-12-03T12:31:25.156416", "MEAN_MOTION": 14.27243277, "ECCENTRICITY": 0.00633267, "INCLINATION": 86.2954, "RA_OF_ASC_NODE": 52.388, "ARG_OF_PERICENTER": 219.3785, "MEAN_ANOMALY": 204.5522, "EPHEMERIS_TYPE": 0, "CLASSIFICATION_TYPE": "U", "NORAD_CAT_ID": 38228, "ELEMENT_SET_NO": 999, "REV_AT_EPOCH": 84650, "BSTAR": 0.00054665281, "MEAN_MOTION_DOT": 1.383e-05, "MEAN_MOTION_DDOT": 0}, "tle": {"line1": "1 38228U 97051ZC  25337.52181894  .00001383  00000+0  54665-3 0  9996", "line2": "2 38228  86.2954  52.3880 0063326 219.3785 204.5522 14.27243277846502"}}, "geometry": {"type": "Point", "coordinates": [-129.1231200510154, 16.726225308353527]}}, {"type": "Feature", "properties": {"norad_id": 38241, "name": "IRIDIUM 33 DEB", "group": "iridium-33-debris", "lat": -16.107139007799763, "lon": -6.807693232842841, "alt_km": 715.8780149656977, "timestamp": "2025-12-04T10:51:50.491156+00:00", "meta": {"OBJECT_NAME": "IRIDIUM 33 DEB", "OBJECT_ID": "1997-051ZR", "EPOCH": "2025-12-01T08:39:05.059872", "MEAN_MOTION": 14.54752437, "ECCENTRICITY": 0.00056988, "INCLINATION": 86.3235, "RA_OF_ASC_NODE": 355.6193, "ARG_OF_PERICENTER": 96.8352, "MEAN_ANOMALY": 263.3504, "EPHEMERIS_TYPE": 0, "CLASSIFICATION_TYPE": "U", "NORAD_CAT_ID": 38241, "ELEMENT_SET_NO": 999, "REV_AT_EPOCH": 60035, "BSTAR": 0.00088099609, "MEAN_MOTION_DOT": 3.793e-05, "MEAN_MOTION_DDOT": 0}, "tle": {"line1": "1 38241U 97051ZR  25335.36047523  .00003793  00000+0  88100-3 0  9999", "line2": "2 38241  86.3235 355.6193 0005698  96.8352 263.3504 14.54752437600359"}}, "geometry": {"type": "Point", "coordinates": [-6.807693232842841, -16.107139007799763]}}, {"type": "Feature", "properties": {"norad_id": 38474, "name": "IRIDIUM 33 DEB", "group": "iridium-33-debris", "lat": -61.29448949228277, "lon": -159.6236124971537, "alt_km": 742.5937574004301, "timestamp": "2025-12-04T10:51:50.491166+00:00", "meta": {"OBJECT_NAME": "IRIDIUM 33 DEB", "OBJECT_ID": "1997-051AAB", "EPOCH": "2025-11-29T08:54:08.657856", "MEAN_MOTION": 14.50603208, "ECCENTRICITY": 0.002717, "INCLINATION": 86.3442, "RA_OF_ASC_NODE": 15.8845, "ARG_OF_PERICENTER": 130.9322, "MEAN_ANOMALY": 229.4241, "EPHEMERIS_TYPE": 0, "CLASSIFICATION_TYPE": "U", "NORAD_CAT_ID": 38474, "ELEMENT_SET_NO": 999, "REV_AT_EPOCH": 65124, "BSTAR": 0.00047302373, "MEAN_MOTION_DOT": 1.884e-05, "MEAN_MOTION_DDOT": 0}, "tle": {"line1": "1 38474U 97051AAB 25333.37093354  .00001884  00000+0  47302-3 0  9997", "line2": "2 38474  86.3442  15.8845 0027170 130.9322 229.4241 14.50603208651244"}}, "geometry": {"type": "Point", "coordinates": [-159.6236124971537, -61.29448949228277]}}, {"type": "Feature", "properties": {"norad_id": 39777, "name": "IRIDIUM 33 DEB", "group": "iridium-33-debris", "lat": 60.096616071527336, "lon": -7.99326668804505, "alt_km": 704.0528790334465, "timestamp": "2025-12-04T10:51:50.491176+00:00", "meta": {"OBJECT_NAME": "IRIDIUM 33 DEB", "OBJECT_ID": "1997-051AAJ", "EPOCH": "2025-12-01T13:02:19.201056", "MEAN_MOTION": 14.56024465, "ECCENTRICITY": 0.00595889, "INCLINATION": 85.9622, "RA_OF_ASC_NODE": 180.4732, "ARG_OF_PERICENTER": 225.0821, "MEAN_ANOMALY": 134.5543, "EPHEMERIS_TYPE": 0, "CLASSIFICATION_TYPE": "U", "NORAD_CAT_ID": 39777, "ELEMENT_SET_NO": 999, "REV_AT_EPOCH": 60022, "BSTAR": 0.0022774227, "MEAN_MOTION_DOT": 0.00010294, "MEAN_MOTION_DDOT": 0}, "tle": {"line1": "1 39777U 97051AAJ 25335.54327779  .00010294  00000+0  22774-2 0  9996", "line2": "2 39777  85.9622 180.4732 0059588 225.0821 134.5543 14.56024465600229"}}, "geometry": {"type": "Point", "coordinates": [-7.99326668804505, 60.096616071527336]}}]}